{
  "norad_id": 46698,
  "name": "STARLINK-1797",
  "history": [
    {
      "epoch": "2026-03-28T12:03:31.019040Z",
      "apogee_km": 396.6084448634565,
      "perigee_km": 388.7204611706911,
      "latitude_deg": 1.727816694325589e-05,
      "longitude_deg": 110.82670137717524,
      "height_km": 392.4288437976591,
      "semi_major_axis_km": 6770.801453017074,
      "eccentricity": 0.0005825,
      "inclination_deg": 53.0436,
      "raan_deg": 117.6279,
      "arg_perigee_deg": 73.4296,
      "mean_anomaly_deg": 286.7355,
      "mean_motion_rev_day": 15.58269764
    }
  ]
}