{"fetched_at":"2026-03-30T09:12:31Z","count":15922,"tles":[{"name":"STARLINK-1797","line1":"1 46698U 20073AE  26087.50244235  .00073557  00000+0  95141-3 0  9992","line2":"2 46698  53.0436 117.6279 0005825  73.4296 286.7355 15.58269764300529","category":"Starlink"}]}